{
    "satellites": [
        {
            "name": "starlink332",
            "title": "Starlink-332 (G11-15) (new)",
            "tle": [
                "1 71130C 25286AC  25346.87270833 -.01315700  00000+0 -27724-2 0  3461",
                "2 71130  53.1566  50.0222 0000832  72.0375 114.6026 15.99463103    10"
            ],
            "stdMag": 5,
            "noradId": "71130",
            "tleUrl": "http://celestrak.org/NORAD/elements/supplemental/sup-gp.php?FILE=starlink&FORMAT=tle",
            "launchDate": "2025-12-07T17:58:30.000Z",
            "active": true,
            "batch": [
                {
                    "noradId": "71130",
                    "tle": [
                        "1 71130C 25286AC  25346.87270833 -.01315700  00000+0 -27724-2 0  3461",
                        "2 71130  53.1566  50.0222 0000832  72.0375 114.6026 15.99463103    10"
                    ]
                },
                {
                    "noradId": "71129",
                    "tle": [
                        "1 71129C 25286AB  25346.87201389 -.01311700  00000+0 -27772-2 0  3468",
                        "2 71129  53.1566  50.0284 0000937  70.4608 110.9436 15.99372761    16"
                    ]
                },
                {
                    "noradId": "71131",
                    "tle": [
                        "1 71131C 25286AD  25346.87270833 -.01307100  00000+0 -27801-2 0  3463",
                        "2 71131  53.1567  50.0272 0000881  69.7561 114.5082 15.99287071    10"
                    ]
                },
                {
                    "noradId": "71128",
                    "tle": [
                        "1 71128C 25286AA  25346.87062500 -.01303900  00000+0 -27853-2 0  3460",
                        "2 71128  53.1566  50.0404 0001031  54.6529 116.4228 15.99205254    13"
                    ]
                },
                {
                    "noradId": "71126",
                    "tle": [
                        "1 71126C 25286Y   25346.87687500 -.01299300  00000+0 -27898-2 0  3468",
                        "2 71126  53.1566  50.0105 0000938  65.1448 140.8140 15.99108474    11"
                    ]
                },
                {
                    "noradId": "71127",
                    "tle": [
                        "1 71127C 25286Z   25346.86923611 -.01296800  00000+0 -27927-2 0  3469",
                        "2 71127  53.1566  50.0520 0000879  70.0069  90.8567 15.99052829    10"
                    ]
                },
                {
                    "noradId": "71125",
                    "tle": [
                        "1 71125C 25286X   25346.87131944 -.01289000  00000+0 -27927-2 0  3462",
                        "2 71125  53.1566  50.0443 0001000  55.3241 116.1194 15.98936322    13"
                    ]
                },
                {
                    "noradId": "71124",
                    "tle": [
                        "1 71124C 25286W   25346.87131944 -.01285300  00000+0 -27972-2 0  3460",
                        "2 71124  53.1565  50.0468 0001000  58.9074 111.3541 15.98851360    12"
                    ]
                },
                {
                    "noradId": "71123",
                    "tle": [
                        "1 71123C 25286V   25346.87062500 -.01279300  00000+0 -27990-2 0  3463",
                        "2 71123  53.1567  50.0532 0001052  55.7679 109.1519 15.98750011    19"
                    ]
                },
                {
                    "noradId": "71122",
                    "tle": [
                        "1 71122C 25286U   25346.87270833 -.01278500  00000+0 -28096-2 0  3461",
                        "2 71122  53.1567  50.0449 0000804  69.8329 105.9693 15.98669777    12"
                    ]
                },
                {
                    "noradId": "71121",
                    "tle": [
                        "1 71121C 25286T   25346.87479167 -.01271000  00000+0 -28092-2 0  3465",
                        "2 71121  53.1568  50.0371 0000939  63.5135 122.9094 15.98557983    10"
                    ]
                },
                {
                    "noradId": "71119",
                    "tle": [
                        "1 71119C 25286R   25346.87340278 -.01266800  00000+0 -28122-2 0  3468",
                        "2 71119  53.1568  50.0467 0000919  66.4608 110.7936 15.98476021    11"
                    ]
                },
                {
                    "noradId": "71120",
                    "tle": [
                        "1 71120C 25286S   25346.87409722 -.01257600  00000+0 -28158-2 0  3467",
                        "2 71120  53.1569  50.0478 0000934  68.9883 109.9621 15.98311015    17"
                    ]
                },
                {
                    "noradId": "71118",
                    "tle": [
                        "1 71118C 25286Q   25346.86645833 -.01263600  00000+0 -28138-2 0  3463",
                        "2 71118  53.1570  50.0849 0001000  55.2045  80.9410 15.98416304    13"
                    ]
                },
                {
                    "noradId": "71117",
                    "tle": [
                        "1 71117C 25286P   25346.87062500 -.01250400  00000+0 -28131-2 0  3464",
                        "2 71117  53.1571  50.0686 0000835  71.2596  86.3594 15.98216380    11"
                    ]
                },
                {
                    "noradId": "71116",
                    "tle": [
                        "1 71116C 25286N   25346.86923611 -.01246400  00000+0 -28157-2 0  3464",
                        "2 71116  53.1572  50.0783 0001000  55.5344  92.9213 15.98137098    19"
                    ]
                },
                {
                    "noradId": "71115",
                    "tle": [
                        "1 71115C 25286M   25346.86854167 -.01244400  00000+0 -28233-2 0  3465",
                        "2 71115  53.1573  50.0846 0000869  73.5764  69.7231 15.98058517    17"
                    ]
                },
                {
                    "noradId": "71114",
                    "tle": [
                        "1 71114C 25286L   25346.87409722 -.01238200  00000+0 -28231-2 0  3467",
                        "2 71114  53.1573  50.0582 0000873  69.3822 104.7625 15.97961688    14"
                    ]
                },
                {
                    "noradId": "71113",
                    "tle": [
                        "1 71113C 25286K   25346.86993056 -.01229700  00000+0 -28171-2 0  3461",
                        "2 71113  53.1573  50.0822 0001000  57.6025  91.1921 15.97865567    15"
                    ]
                },
                {
                    "noradId": "71112",
                    "tle": [
                        "1 71112C 25286J   25346.86923611 -.01225600  00000+0 -28205-2 0  3463",
                        "2 71112  53.1574  50.0886 0001000  58.8556  84.7273 15.97780269    10"
                    ]
                },
                {
                    "noradId": "71111",
                    "tle": [
                        "1 71111C 25286H   25346.87340278 -.01219500  00000+0 -28206-2 0  3468",
                        "2 71111  53.1574  50.0697 0001037  56.7919 109.5689 15.97681113    14"
                    ]
                },
                {
                    "noradId": "71110",
                    "tle": [
                        "1 71110C 25286G   25346.87270833 -.01214400  00000+0 -28214-2 0  3469",
                        "2 71110  53.1575  50.0759 0001020  57.0683 104.0714 15.97593760    16"
                    ]
                },
                {
                    "noradId": "71109",
                    "tle": [
                        "1 71109C 25286F   25346.86923611 -.01206300  00000+0 -28148-2 0  3461",
                        "2 71109  53.1574  50.0962 0001043  56.8825  83.0240 15.97506081    19"
                    ]
                },
                {
                    "noradId": "71108",
                    "tle": [
                        "1 71108C 25286E   25346.87340278 -.01203200  00000+0 -28202-2 0  3460",
                        "2 71108  53.1575  50.0772 0001059  55.5752 107.2122 15.97421381    17"
                    ]
                },
                {
                    "noradId": "71106",
                    "tle": [
                        "1 71106C 25286C   25346.86784722 -.01192500  00000+0 -28060-2 0  3465",
                        "2 71106  53.1576  50.1084 0001000  63.3418  66.2626 15.97339427    17"
                    ]
                },
                {
                    "noradId": "71107",
                    "tle": [
                        "1 71107C 25286D   25346.87618056 -.01183100  00000+0 -28099-2 0  3461",
                        "2 71107  53.1576  50.0702 0000898  69.3023 105.9802 15.97158915    14"
                    ]
                },
                {
                    "noradId": "71105",
                    "tle": [
                        "1 71105C 25286B   25346.86923611 -.01188300  00000+0 -28079-2 0  3469",
                        "2 71105  53.1576  50.1034 0000943  68.0413  68.4346 15.97257150    18"
                    ]
                },
                {
                    "noradId": "71104",
                    "tle": [
                        "1 71104C 25286A   25346.87479167 -.01172800  00000+0 -28000-2 0  3463",
                        "2 71104  53.1577  50.0804 0000843  73.1261  92.7753 15.97053313    16"
                    ]
                }
            ]
        }
    ],
    "config": {}
}